METHANESAT              
1 59101U 24043D   25347.91151444  .00005125  00000+0  45227-3 0  9994
2 59101  97.8215 113.5045 0008937 269.4398  90.5799 14.96815616 96929
GOSAT-GW (IBUKI GW)     
1 64694U 25141A   25348.00976168  .00001471  00000+0  26771-3 0  9999
2 64694  98.0426 283.4996 0001470  84.2913 275.8459 14.67560819 24687
GHGSAT-C1               
1 46278U 20061G   25347.99279973  .00026441  00000+0  34045-3 0  9997
2 46278  97.2317  63.6426 0002099  39.3571 320.7838 15.59023817294516
GHGSAT-C12              
1 64529U 25135B   25347.94472862  .00005300  00000+0  25872-3 0  9999
2 64529  97.4608  99.8102 0006503  98.0168 262.1805 15.18685881 26695
GHGSAT-C13              
1 64548U 25135W   25347.90433252  .00004127  00000+0  19782-3 0  9995
2 64548  97.4634 100.0689 0002481  67.2485 292.9011 15.19463179 26708
GHGSAT-C2               
1 47509U 21006DA  25347.87414167  .00008342  00000+0  24678-3 0  9999
2 47509  97.2447  33.3254 0006961 109.3189 250.8808 15.35130756271392
GHGSAT-C3               
1 52737U 22057F   25347.98898678  .00008839  00000+0  29405-3 0  9994
2 52737  97.6334 122.4320 0007451  64.0204 296.1803 15.31379699197161
GHGSAT-C4               
1 52746U 22057Q   25347.94268875  .00009050  00000+0  30112-3 0  9993
2 52746  97.6263 121.4022 0007513  51.4247 308.7665 15.31369028197167
GHGSAT-C5               
1 52744U 22057N   25347.95993848  .00008547  00000+0  28461-3 0  9991
2 52744  97.6422 123.7600 0008370  59.9917 300.2154 15.31357793197164
GHGSAT-C6               
1 56204U 23054AC  25347.97646557  .00016711  00000+0  33286-3 0  9991
2 56204  97.3170 250.2237 0008468  14.1503 345.9983 15.46935795149769
GHGSAT-C7               
1 56209U 23054AH  25347.96391233  .00012871  00000+0  27148-3 0  9996
2 56209  97.3130 249.4364 0008494   5.7297 354.4048 15.45319779149748
GHGSAT-C8               
1 56186U 23054J   25348.01406666  .00017079  00000+0  33999-3 0  9990
2 56186  97.3137 249.6882 0006988  36.7708 323.4020 15.46961298149750
SENTINEL-5P             
1 42969U 17064A   25347.82412006  .00000133  00000+0  83854-4 0  9990
2 42969  98.7784 286.3986 0000970  88.5825 271.5462 14.19517942423266
ENMAP                   
1 52159U 22033C   25347.96475843  .00000896  00000+0  14078-3 0  9994
2 52159  97.9794  67.8601 0001359  82.1019 278.0344 14.74949394199355
PRISMA                  
1 44072U 19015A   25347.94556894  .00001172  00000+0  14817-3 0  9998
2 44072  97.8696  60.3872 0001190  95.0409 265.0941 14.83695279364585
SENTINEL-2A             
1 40697U 15028A   25347.96992126  .00000308  00000+0  13410-3 0  9999
2 40697  98.5687  60.4844 0001091  88.0028 272.1280 14.30814077547243
SENTINEL-2B             
1 42063U 17013A   25347.96273103  .00000363  00000+0  15505-3 0  9999
2 42063  98.5711  60.3911 0001171  93.3771 266.7546 14.30817173458152
SENTINEL-2C             
1 60989U 24157A   25347.78802911  .00000196  00000+0  91395-4 0  9994
2 60989  98.5682  60.2555 0001212  97.4854 262.6467 14.30818014 66474
LANDSAT 8               
1 39084U 13008A   25347.96110077  .00000575  00000+0  13769-3 0  9993
2 39084  98.2072  56.0166 0001088  89.6964 270.4359 14.57115436670928
LANDSAT 9               
1 49260U 21088A   25347.78947828  .00000645  00000+0  15324-3 0  9996
2 49260  98.2094  55.8854 0001175  89.5208 270.6125 14.57099361224002
